{
  "norad_id": 53781,
  "name": "STARLINK-4462",
  "history": [
    {
      "epoch": "2026-03-28T17:59:56.625216",
      "apogee_km": 540.7301712805647,
      "perigee_km": 538.7152754575354,
      "latitude_deg": 27.4668685698425,
      "longitude_deg": -9.903749760007486,
      "semi_major_axis_km": 6917.85972336905,
      "eccentricity": 0.00014563,
      "inclination_deg": 53.2169,
      "raan_deg": 188.5526,
      "arg_perigee_deg": 92.7145,
      "mean_anomaly_deg": 267.4014,
      "mean_motion_rev_day": 15.08846761
    }
  ]
}